[{"OBJECT_NAME":"STARLINK-33857","OBJECT_ID":"2025-113AB","EPOCH":"2026-03-09T19:03:26.282880","MEAN_MOTION":15.30220343,"ECCENTRICITY":0.00019382,"INCLINATION":53.1599,"RA_OF_ASC_NODE":90.4571,"ARG_OF_PERICENTER":107.8257,"MEAN_ANOMALY":252.2955,"EPHEMERIS_TYPE":0,"CLASSIFICATION_TYPE":"U","NORAD_CAT_ID":64195,"ELEMENT_SET_NO":999,"REV_AT_EPOCH":4504,"BSTAR":0.00083378978,"MEAN_MOTION_DOT":0.00024432,"MEAN_MOTION_DDOT":0},{"OBJECT_NAME":"FENGYUN 1C DEB","OBJECT_ID":"1999-025AUA","EPOCH":"2026-03-09T22:20:03.086592","MEAN_MOTION":15.37519861,"ECCENTRICITY":0.00616014,"INCLINATION":98.7858,"RA_OF_ASC_NODE":60.8335,"ARG_OF_PERICENTER":230.1589,"MEAN_ANOMALY":129.4222,"EPHEMERIS_TYPE":0,"CLASSIFICATION_TYPE":"U","NORAD_CAT_ID":30764,"ELEMENT_SET_NO":999,"REV_AT_EPOCH":2558,"BSTAR":0.00082447851,"MEAN_MOTION_DOT":0.00032356,"MEAN_MOTION_DDOT":0}]
